COSMOS 1933             
1 18958U 88020A   26041.62927251  .00003401  00000+0  16706-3 0  9996
2 18958  82.5122 277.6854 0003073 312.3195  47.7778 15.17748292 46128
SL-3 R/B                
1 19046U 88032B   26041.93443059  .00006081  00000+0  28686-3 0  9998
2 19046  97.5152  25.2963 0025210 331.4228  28.5623 15.19562067 48045
SL-16 R/B               
1 19120U 88039B   26041.71122762  .00000004  00000+0  24471-4 0  9997
2 19120  71.0148 125.5968 0021097  15.4411 344.7353 14.19611672954552
COSMOS 1953             
1 19210U 88050A   26041.84576145  .00010672  00000+0  38908-3 0  9993
2 19210  82.5092 185.2273 0010787 214.6327 145.4211 15.27984376 33687
SL-8 R/B                
1 19257U 88053B   26041.83051955  .00000269  00000+0  95755-4 0  9998
2 19257  74.0482 161.9697 0020497 346.1390 130.7143 14.38899516972739
COSMOS 1975             
1 19573U 88093A   26041.67565570  .00009151  00000+0  33751-3 0  9994
2 19573  82.5220 144.7854 0010338 264.4267  95.5793 15.27594141 15288
SL-14 R/B               
1 19574U 88093B   26041.59719137  .00000464  00000+0  50576-4 0  9999
2 19574  82.5279  67.4838 0022001 125.3440 353.2555 14.85625420997012
SL-16 R/B               
1 19650U 88102B   26041.85172509  .00000311  00000+0  18123-3 0  9992
2 19650  70.9978 207.9623 0012560  45.7314 314.4838 14.16148449923096
INTERCOSMOS 24          
1 20261U 89080A   26041.63826213  .00000543  00000+0  15698-3 0  9993
2 20261  82.6065 122.0124 1187930 355.6441   3.4981 12.59520335663396
SL-14 R/B               
1 20262U 89080C   26041.90975704  .00000469  00000+0  14193-3 0  9990
2 20262  82.5947 190.3767 1229494 245.9844 100.7933 12.50460277656801
DELTA 1 R/B             
1 20323U 89089B   26041.58192396  .00000403  00000+0  10837-3 0  9998
2 20323  97.0725 253.3285 0068347 207.3108 152.4490 14.50640339891805
ARIANE 40 R/B           
1 20443U 90005H   26041.64234315  .00000279  00000+0  10240-3 0  9995
2 20443  98.3145 103.1017 0008934 287.7773  72.2441 14.39852169888915
