CCSDS_OMM_VERS = 2.0
CREATION_DATE  = 
ORIGINATOR     = 

OBJECT_NAME    = COSMOS 1933
OBJECT_ID      = 1988-020A
CENTER_NAME    = EARTH
REF_FRAME      = TEME
TIME_SYSTEM    = UTC
MEAN_ELEMENT_THEORY = SGP/SGP4

EPOCH          = 2026-02-10T15:06:09.144864
MEAN_MOTION    = 15.17748292
ECCENTRICITY   = .00030733
INCLINATION    = 82.5122
RA_OF_ASC_NODE = 277.6854
ARG_OF_PERICENTER = 312.3195
MEAN_ANOMALY   = 47.7778

EPHEMERIS_TYPE = 0
CLASSIFICATION_TYPE = U
NORAD_CAT_ID   = 18958
ELEMENT_SET_NO = 999
REV_AT_EPOCH   = 4612
BSTAR          = .16705765E-3
MEAN_MOTION_DOT = .3401E-4
MEAN_MOTION_DDOT = 0

CCSDS_OMM_VERS = 2.0
CREATION_DATE  = 
ORIGINATOR     = 

OBJECT_NAME    = SL-3 R/B
OBJECT_ID      = 1988-032B
CENTER_NAME    = EARTH
REF_FRAME      = TEME
TIME_SYSTEM    = UTC
MEAN_ELEMENT_THEORY = SGP/SGP4

EPOCH          = 2026-02-10T22:25:34.802976
MEAN_MOTION    = 15.19562067
ECCENTRICITY   = .00252109
INCLINATION    = 97.5152
RA_OF_ASC_NODE = 25.2963
ARG_OF_PERICENTER = 331.4228
MEAN_ANOMALY   = 28.5623

EPHEMERIS_TYPE = 0
CLASSIFICATION_TYPE = U
NORAD_CAT_ID   = 19046
ELEMENT_SET_NO = 999
REV_AT_EPOCH   = 4804
BSTAR          = .2868633E-3
MEAN_MOTION_DOT = .6081E-4
MEAN_MOTION_DDOT = 0

CCSDS_OMM_VERS = 2.0
CREATION_DATE  = 
ORIGINATOR     = 

OBJECT_NAME    = SL-16 R/B
OBJECT_ID      = 1988-039B
CENTER_NAME    = EARTH
REF_FRAME      = TEME
TIME_SYSTEM    = UTC
MEAN_ELEMENT_THEORY = SGP/SGP4

EPOCH          = 2026-02-10T17:04:10.066368
MEAN_MOTION    = 14.19611672
ECCENTRICITY   = .00210972
INCLINATION    = 71.0148
RA_OF_ASC_NODE = 125.5968
ARG_OF_PERICENTER = 15.4411
MEAN_ANOMALY   = 344.7353

EPHEMERIS_TYPE = 0
CLASSIFICATION_TYPE = U
NORAD_CAT_ID   = 19120
ELEMENT_SET_NO = 999
REV_AT_EPOCH   = 95455
BSTAR          = .24470599E-4
MEAN_MOTION_DOT = .4E-7
MEAN_MOTION_DDOT = 0

CCSDS_OMM_VERS = 2.0
CREATION_DATE  = 
ORIGINATOR     = 

OBJECT_NAME    = COSMOS 1953
OBJECT_ID      = 1988-050A
CENTER_NAME    = EARTH
REF_FRAME      = TEME
TIME_SYSTEM    = UTC
MEAN_ELEMENT_THEORY = SGP/SGP4

EPOCH          = 2026-02-10T20:17:53.789280
MEAN_MOTION    = 15.27984376
ECCENTRICITY   = .00107878
INCLINATION    = 82.5092
RA_OF_ASC_NODE = 185.2273
ARG_OF_PERICENTER = 214.6327
MEAN_ANOMALY   = 145.4211

EPHEMERIS_TYPE = 0
CLASSIFICATION_TYPE = U
NORAD_CAT_ID   = 19210
ELEMENT_SET_NO = 999
REV_AT_EPOCH   = 3368
BSTAR          = .38908276E-3
MEAN_MOTION_DOT = .10672E-3
MEAN_MOTION_DDOT = 0

CCSDS_OMM_VERS = 2.0
CREATION_DATE  = 
ORIGINATOR     = 

OBJECT_NAME    = SL-8 R/B
OBJECT_ID      = 1988-053B
CENTER_NAME    = EARTH
REF_FRAME      = TEME
TIME_SYSTEM    = UTC
MEAN_ELEMENT_THEORY = SGP/SGP4

EPOCH          = 2026-02-10T19:55:56.889120
MEAN_MOTION    = 14.38899516
ECCENTRICITY   = .00204975
INCLINATION    = 74.0482
RA_OF_ASC_NODE = 161.9697
ARG_OF_PERICENTER = 346.1390
MEAN_ANOMALY   = 130.7143

EPHEMERIS_TYPE = 0
CLASSIFICATION_TYPE = U
NORAD_CAT_ID   = 19257
ELEMENT_SET_NO = 999
REV_AT_EPOCH   = 97273
BSTAR          = .95755176E-4
MEAN_MOTION_DOT = .269E-5
MEAN_MOTION_DDOT = 0

CCSDS_OMM_VERS = 2.0
CREATION_DATE  = 
ORIGINATOR     = 

OBJECT_NAME    = COSMOS 1975
OBJECT_ID      = 1988-093A
CENTER_NAME    = EARTH
REF_FRAME      = TEME
TIME_SYSTEM    = UTC
MEAN_ELEMENT_THEORY = SGP/SGP4

EPOCH          = 2026-02-10T16:12:56.652480
MEAN_MOTION    = 15.27594141
ECCENTRICITY   = .00103381
INCLINATION    = 82.5220
RA_OF_ASC_NODE = 144.7854
ARG_OF_PERICENTER = 264.4267
MEAN_ANOMALY   = 95.5793

EPHEMERIS_TYPE = 0
CLASSIFICATION_TYPE = U
NORAD_CAT_ID   = 19573
ELEMENT_SET_NO = 999
REV_AT_EPOCH   = 1528
BSTAR          = .33751435E-3
MEAN_MOTION_DOT = .9151E-4
MEAN_MOTION_DDOT = 0

CCSDS_OMM_VERS = 2.0
CREATION_DATE  = 
ORIGINATOR     = 

OBJECT_NAME    = SL-14 R/B
OBJECT_ID      = 1988-093B
CENTER_NAME    = EARTH
REF_FRAME      = TEME
TIME_SYSTEM    = UTC
MEAN_ELEMENT_THEORY = SGP/SGP4

EPOCH          = 2026-02-10T14:19:57.334368
MEAN_MOTION    = 14.85625420
ECCENTRICITY   = .00220017
INCLINATION    = 82.5279
RA_OF_ASC_NODE = 67.4838
ARG_OF_PERICENTER = 125.3440
MEAN_ANOMALY   = 353.2555

EPHEMERIS_TYPE = 0
CLASSIFICATION_TYPE = U
NORAD_CAT_ID   = 19574
ELEMENT_SET_NO = 999
REV_AT_EPOCH   = 99701
BSTAR          = .50575855E-4
MEAN_MOTION_DOT = .464E-5
MEAN_MOTION_DDOT = 0

CCSDS_OMM_VERS = 2.0
CREATION_DATE  = 
ORIGINATOR     = 

OBJECT_NAME    = SL-16 R/B
OBJECT_ID      = 1988-102B
CENTER_NAME    = EARTH
REF_FRAME      = TEME
TIME_SYSTEM    = UTC
MEAN_ELEMENT_THEORY = SGP/SGP4

EPOCH          = 2026-02-10T20:26:29.047776
MEAN_MOTION    = 14.16148449
ECCENTRICITY   = .00125604
INCLINATION    = 70.9978
RA_OF_ASC_NODE = 207.9623
ARG_OF_PERICENTER = 45.7314
MEAN_ANOMALY   = 314.4838

EPHEMERIS_TYPE = 0
CLASSIFICATION_TYPE = U
NORAD_CAT_ID   = 19650
ELEMENT_SET_NO = 999
REV_AT_EPOCH   = 92309
BSTAR          = .18123026E-3
MEAN_MOTION_DOT = .311E-5
MEAN_MOTION_DDOT = 0

CCSDS_OMM_VERS = 2.0
CREATION_DATE  = 
ORIGINATOR     = 

OBJECT_NAME    = INTERCOSMOS 24
OBJECT_ID      = 1989-080A
CENTER_NAME    = EARTH
REF_FRAME      = TEME
TIME_SYSTEM    = UTC
MEAN_ELEMENT_THEORY = SGP/SGP4

EPOCH          = 2026-02-10T15:19:05.848032
MEAN_MOTION    = 12.59520335
ECCENTRICITY   = .11879302
INCLINATION    = 82.6065
RA_OF_ASC_NODE = 122.0124
ARG_OF_PERICENTER = 355.6441
MEAN_ANOMALY   = 3.4981

EPHEMERIS_TYPE = 0
CLASSIFICATION_TYPE = U
NORAD_CAT_ID   = 20261
ELEMENT_SET_NO = 999
REV_AT_EPOCH   = 66339
BSTAR          = .1569771E-3
MEAN_MOTION_DOT = .543E-5
MEAN_MOTION_DDOT = 0

CCSDS_OMM_VERS = 2.0
CREATION_DATE  = 
ORIGINATOR     = 

OBJECT_NAME    = SL-14 R/B
OBJECT_ID      = 1989-080C
CENTER_NAME    = EARTH
REF_FRAME      = TEME
TIME_SYSTEM    = UTC
MEAN_ELEMENT_THEORY = SGP/SGP4

EPOCH          = 2026-02-10T21:50:03.008256
MEAN_MOTION    = 12.50460277
ECCENTRICITY   = .12294943
INCLINATION    = 82.5947
RA_OF_ASC_NODE = 190.3767
ARG_OF_PERICENTER = 245.9844
MEAN_ANOMALY   = 100.7933

EPHEMERIS_TYPE = 0
CLASSIFICATION_TYPE = U
NORAD_CAT_ID   = 20262
ELEMENT_SET_NO = 999
REV_AT_EPOCH   = 65680
BSTAR          = .14193243E-3
MEAN_MOTION_DOT = .469E-5
MEAN_MOTION_DDOT = 0

CCSDS_OMM_VERS = 2.0
CREATION_DATE  = 
ORIGINATOR     = 

OBJECT_NAME    = DELTA 1 R/B
OBJECT_ID      = 1989-089B
CENTER_NAME    = EARTH
REF_FRAME      = TEME
TIME_SYSTEM    = UTC
MEAN_ELEMENT_THEORY = SGP/SGP4

EPOCH          = 2026-02-10T13:57:58.230144
MEAN_MOTION    = 14.50640339
ECCENTRICITY   = .00683474
INCLINATION    = 97.0725
RA_OF_ASC_NODE = 253.3285
ARG_OF_PERICENTER = 207.3108
MEAN_ANOMALY   = 152.4490

EPHEMERIS_TYPE = 0
CLASSIFICATION_TYPE = U
NORAD_CAT_ID   = 20323
ELEMENT_SET_NO = 999
REV_AT_EPOCH   = 89180
BSTAR          = .10836936E-3
MEAN_MOTION_DOT = .403E-5
MEAN_MOTION_DDOT = 0

CCSDS_OMM_VERS = 2.0
CREATION_DATE  = 
ORIGINATOR     = 

OBJECT_NAME    = ARIANE 40 R/B
OBJECT_ID      = 1990-005H
CENTER_NAME    = EARTH
REF_FRAME      = TEME
TIME_SYSTEM    = UTC
MEAN_ELEMENT_THEORY = SGP/SGP4

EPOCH          = 2026-02-10T15:24:58.448160
MEAN_MOTION    = 14.39852169
ECCENTRICITY   = .00089347
INCLINATION    = 98.3145
RA_OF_ASC_NODE = 103.1017
ARG_OF_PERICENTER = 287.7773
MEAN_ANOMALY   = 72.2441

EPHEMERIS_TYPE = 0
CLASSIFICATION_TYPE = U
NORAD_CAT_ID   = 20443
ELEMENT_SET_NO = 999
REV_AT_EPOCH   = 88891
BSTAR          = .10239769E-3
MEAN_MOTION_DOT = .279E-5
MEAN_MOTION_DDOT = 0

